ONEWEB-0053             
1 45157U 20008AC  26201.26277285 -.00000060  00000+0 -20832-3 0  9997
2 45157  87.8817  29.6910 0001407  80.1165 280.0122 13.10375682312246
ONEWEB-0054             
1 45158U 20008AD  26201.06933879  .00000092  00000+0  22682-3 0  9992
2 45158  87.8816  29.7153 0001827  86.8353 273.2983 13.10372843312339
ONEWEB-0056             
1 45159U 20008AE  26201.26942522  .00000288  00000+0  78863-3 0  9999
2 45159  87.8828  29.6688 0002040  83.7122 276.4238 13.10375616312512
ONEWEB-0057             
1 45160U 20008AF  26201.05760977  .00000645  00000+0  18108-2 0  9992
2 45160  87.8819  29.7225 0001451  75.7910 284.3378 13.10371170312652
ONEWEB-0058             
1 45161U 20008AG  26201.27315257  .00000595  00000+0  16650-2 0  9998
2 45161  87.8815  29.6830 0001941  96.0731 264.0618 13.10541413312753
ONEWEB-0059             
1 45162U 20008AH  26201.26972364  .00000305  00000+0  83839-3 0  9999
2 45162  87.8820  29.6837 0001551  89.5606 270.5699 13.10376888312654
ONEWEB-0062             
1 45163U 20008AJ  26201.06412104  .00000332  00000+0  91365-3 0  9992
2 45163  87.8819  29.7144 0002139  94.4233 265.7139 13.10369863312491
ONEWEB-0065             
1 45164U 20008AK  26201.02166878 -.00000519  00000+0 -15244-2 0  9993
2 45164  87.8823  29.7308 0001746  78.5362 281.5962 13.10373964312181
ONEWEB-0066             
1 45424U 20020A   26201.18316437  .00000083  00000+0  19716-3 0  9994
2 45424  87.8885  14.4997 0001745  96.4894 263.6433 13.11419343307003
ONEWEB-0067             
1 45425U 20020B   26201.22087525  .00000006  00000+0 -18442-4 0  9995
2 45425  87.8910  14.4209 0001687  87.6502 272.4819 13.11427434307064
ONEWEB-0080             
1 45426U 20020C   26201.22065052  .00000575  00000+0  15853-2 0  9998
2 45426  87.8900  14.4924 0002336  98.9870 261.1522 13.11414364307034
ONEWEB-0090             
1 45427U 20020D   26201.17317047  .00000377  00000+0  10279-2 0  9994
2 45427  87.8898  14.5059 0001900  91.5058 268.6288 13.11415327306999
ONEWEB-0061             
1 45428U 20020E   26200.97620193 -.00000521  00000+0 -15058-2 0  9994
2 45428  87.8895  14.5291 0001832  92.5631 267.5707 13.11417873306922
ONEWEB-0081             
1 45429U 20020F   26201.18658790 -.00000103  00000+0 -32747-3 0  9994
2 45429  87.8890  14.4966 0001623  92.4402 267.6912 13.11415463307067
ONEWEB-0069             
1 45430U 20020G   26201.03581562 -.00000282  00000+0 -83131-3 0  9993
2 45430  87.8892  14.5300 0001638  95.5535 264.5780 13.11417323306976
ONEWEB-0031             
1 45431U 20020H   26200.99501419  .00000094  00000+0  22803-3 0  9999
2 45431  87.8884  14.5406 0002023  93.7167 266.4192 13.11420036306956
ONEWEB-0027             
1 45432U 20020J   26201.14138524 -.00000145  00000+0 -40688-3 0  9991
2 45432  87.9153 359.3098 0002255  90.9385 269.2005 13.17649508310695
ONEWEB-0064             
1 45433U 20020K   26200.99330770  .00000093  00000+0  22693-3 0  9997
2 45433  87.8891  14.5342 0002024  91.4193 268.7167 13.11418334306988
ONEWEB-0018             
1 45434U 20020L   26201.02537918  .00000170  00000+0  44365-3 0  9992
2 45434  87.8890  14.5275 0001727 104.0516 256.0804 13.11414915306936
ONEWEB-0083             
1 45435U 20020M   26201.24438201  .00000561  00000+0  15465-2 0  9994
2 45435  87.8895  14.4793 0001900  93.7521 266.3824 13.11416169307007
ONEWEB-0095             
1 45436U 20020N   26201.00701551  .00000493  00000+0  13561-2 0  9999
2 45436  87.8897  14.5351 0002211  74.5741 285.5631 13.11416677306976
ONEWEB-0092             
1 45437U 20020P   26201.19013258 -.00000230  00000+0 -68435-3 0  9992
2 45437  87.8893  14.4897 0001754  98.4606 261.6721 13.11412860307115
ONEWEB-0085             
1 45438U 20020Q   26201.01521395  .00000519  00000+0  14295-2 0  9992
2 45438  87.8890  14.5297 0001858  91.7887 268.3454 13.11416458306977
ONEWEB-0096             
1 45439U 20020R   26201.24593822  .00000507  00000+0  13959-2 0  9995
2 45439  87.8894  14.4814 0001905  88.3885 271.7461 13.11415513306998
ONEWEB-0037             
1 45440U 20020S   26201.19577851  .00011748  00000+0  33022-1 0  9996
2 45440  87.8901  14.4646 0001547  93.6030 266.5275 13.11513598307027
ONEWEB-0042             
1 45441U 20020T   26201.23563108  .00000438  00000+0  11987-2 0  9993
2 45441  87.8894  14.4799 0001754  91.1432 268.9897 13.11417543306991
ONEWEB-0098             
1 45442U 20020U   26201.23152792  .00000336  00000+0  91295-3 0  9995
2 45442  87.8894  14.4895 0001903  93.0054 267.1292 13.11416720306970
ONEWEB-0055             
1 45443U 20020V   26200.98129834 -.00000402  00000+0 -11701-2 0  9997
2 45443  87.8896  14.5387 0001915  92.7237 267.4110 13.11417898306915
ONEWEB-0093             
1 45444U 20020W   26201.19913133 -.00000596  00000+0 -17301-2 0  9991
2 45444  87.8896  14.4923 0001530  92.4221 267.7082 13.10891889307001
ONEWEB-0029             
1 45445U 20020X   26201.21725781 -.00000226  00000+0 -67279-3 0  9995
2 45445  87.8887  14.4913 0001611  95.2793 264.8519 13.11416781306980
