OBJECT_NAME,OBJECT_ID,EPOCH,MEAN_MOTION,ECCENTRICITY,INCLINATION,RA_OF_ASC_NODE,ARG_OF_PERICENTER,MEAN_ANOMALY,EPHEMERIS_TYPE,CLASSIFICATION_TYPE,NORAD_CAT_ID,ELEMENT_SET_NO,REV_AT_EPOCH,BSTAR,MEAN_MOTION_DOT,MEAN_MOTION_DDOT
ONEWEB-0053,2020-008AC,2026-07-20T06:18:23.574240,13.10375682,.00014074,87.8817,29.6910,80.1165,280.0122,0,U,45157,999,31224,-.20831539E-3,-.6E-6,0
ONEWEB-0054,2020-008AD,2026-07-20T01:39:50.871456,13.10372843,.00018273,87.8816,29.7153,86.8353,273.2983,0,U,45158,999,31233,.22682435E-3,.92E-6,0
ONEWEB-0056,2020-008AE,2026-07-20T06:27:58.339008,13.10375616,.00020408,87.8828,29.6688,83.7122,276.4238,0,U,45159,999,31251,.78862603E-3,.288E-5,0
ONEWEB-0057,2020-008AF,2026-07-20T01:22:57.484128,13.10371170,.0001451,87.8819,29.7225,75.7910,284.3378,0,U,45160,999,31265,.18107756E-2,.645E-5,0
ONEWEB-0058,2020-008AG,2026-07-20T06:33:20.382048,13.10541413,.00019417,87.8815,29.6830,96.0731,264.0618,0,U,45161,999,31275,.16649561E-2,.595E-5,0
ONEWEB-0059,2020-008AH,2026-07-20T06:28:24.122496,13.10376888,.00015516,87.8820,29.6837,89.5606,270.5699,0,U,45162,999,31265,.83838723E-3,.305E-5,0
ONEWEB-0062,2020-008AJ,2026-07-20T01:32:20.057856,13.10369863,.00021397,87.8819,29.7144,94.4233,265.7139,0,U,45163,999,31249,.91364999E-3,.332E-5,0
ONEWEB-0065,2020-008AK,2026-07-20T00:31:12.182592,13.10373964,.00017466,87.8823,29.7308,78.5362,281.5962,0,U,45164,999,31218,-.15244411E-2,-.519E-5,0
ONEWEB-0066,2020-020A,2026-07-20T04:23:45.401568,13.11419343,.00017452,87.8885,14.4997,96.4894,263.6433,0,U,45424,999,30700,.19716079E-3,.83E-6,0
ONEWEB-0067,2020-020B,2026-07-20T05:18:03.621600,13.11427434,.0001687,87.8910,14.4209,87.6502,272.4819,0,U,45425,999,30706,-.1844153E-4,.6E-7,0
ONEWEB-0080,2020-020C,2026-07-20T05:17:44.204928,13.11414364,.00023366,87.8900,14.4924,98.9870,261.1522,0,U,45426,999,30703,.15852907E-2,.575E-5,0
ONEWEB-0090,2020-020D,2026-07-20T04:09:21.928608,13.11415327,.00019005,87.8898,14.5059,91.5058,268.6288,0,U,45427,999,30699,.10279163E-2,.377E-5,0
ONEWEB-0061,2020-020E,2026-07-19T23:25:43.846752,13.11417873,.00018326,87.8895,14.5291,92.5631,267.5707,0,U,45428,999,30692,-.15058046E-2,-.521E-5,0
ONEWEB-0081,2020-020F,2026-07-20T04:28:41.194560,13.11415463,.0001623,87.8890,14.4966,92.4402,267.6912,0,U,45429,999,30706,-.32747313E-3,-.103E-5,0
ONEWEB-0069,2020-020G,2026-07-20T00:51:34.469568,13.11417323,.00016383,87.8892,14.5300,95.5535,264.5780,0,U,45430,999,30697,-.83131058E-3,-.282E-5,0
ONEWEB-0031,2020-020H,2026-07-19T23:52:49.226016,13.11420036,.00020231,87.8884,14.5406,93.7167,266.4192,0,U,45431,999,30695,.22803232E-3,.94E-6,0
ONEWEB-0027,2020-020J,2026-07-20T03:23:35.684736,13.17649508,.00022558,87.9153,359.3098,90.9385,269.2005,0,U,45432,999,31069,-.40688076E-3,-.145E-5,0
ONEWEB-0064,2020-020K,2026-07-19T23:50:21.785280,13.11418334,.00020249,87.8891,14.5342,91.4193,268.7167,0,U,45433,999,30698,.22692597E-3,.93E-6,0
ONEWEB-0018,2020-020L,2026-07-20T00:36:32.761152,13.11414915,.00017271,87.8890,14.5275,104.0516,256.0804,0,U,45434,999,30693,.44364978E-3,.17E-5,0
ONEWEB-0083,2020-020M,2026-07-20T05:51:54.605664,13.11416169,.00019002,87.8895,14.4793,93.7521,266.3824,0,U,45435,999,30700,.15465096E-2,.561E-5,0
ONEWEB-0095,2020-020N,2026-07-20T00:10:06.140064,13.11416677,.00022115,87.8897,14.5351,74.5741,285.5631,0,U,45436,999,30697,.13560985E-2,.493E-5,0
ONEWEB-0092,2020-020P,2026-07-20T04:33:47.454912,13.11412860,.00017542,87.8893,14.4897,98.4606,261.6721,0,U,45437,999,30711,-.68434521E-3,-.23E-5,0
ONEWEB-0085,2020-020Q,2026-07-20T00:21:54.485280,13.11416458,.0001858,87.8890,14.5297,91.7887,268.3454,0,U,45438,999,30697,.14295258E-2,.519E-5,0
ONEWEB-0096,2020-020R,2026-07-20T05:54:09.062208,13.11415513,.00019058,87.8894,14.4814,88.3885,271.7461,0,U,45439,999,30699,.13958726E-2,.507E-5,0
ONEWEB-0037,2020-020S,2026-07-20T04:41:55.263264,13.11513598,.00015478,87.8901,14.4646,93.6030,266.5275,0,U,45440,999,30702,.33022159E-1,.11748E-3,0
ONEWEB-0042,2020-020T,2026-07-20T05:39:18.525312,13.11417543,.00017545,87.8894,14.4799,91.1432,268.9897,0,U,45441,999,30699,.11987458E-2,.438E-5,0
ONEWEB-0098,2020-020U,2026-07-20T05:33:24.012288,13.11416720,.00019032,87.8894,14.4895,93.0054,267.1292,0,U,45442,999,30697,.91294691E-3,.336E-5,0
ONEWEB-0055,2020-020V,2026-07-19T23:33:04.176576,13.11417898,.00019151,87.8896,14.5387,92.7237,267.4110,0,U,45443,999,30691,-.11701123E-2,-.402E-5,0
ONEWEB-0093,2020-020W,2026-07-20T04:46:44.946912,13.10891889,.00015306,87.8896,14.4923,92.4221,267.7082,0,U,45444,999,30700,-.17301087E-2,-.596E-5,0
ONEWEB-0029,2020-020X,2026-07-20T05:12:51.074784,13.11416781,.00016113,87.8887,14.4913,95.2793,264.8519,0,U,45445,999,30698,-.67279392E-3,-.226E-5,0
